{"results":1,"data":[{"wind":{"degrees":100,"speed_kts":5,"speed_mph":6,"speed_mps":3},"temperature":{"celsius":13,"fahrenheit":55},"dewpoint":{"celsius":10,"fahrenheit":50},"humidity":{"percent":82},"barometer":{"hg":29.26,"hpa":991,"kpa":99.09,"mb":990.92},"visibility":{"miles":"249","miles_float":2.49,"meters":"4,007","meters_float":4007.27},"elevation":{"feet":269.03,"meters":82},"location":{"coordinates":[-1.32,51.836899],"type":"Point"},"icao":"EGTK","observed":"2019-04-24T08:50:00.000Z","raw_text":"EGTK 240850Z 10005KT 4000 HZ SCT041 13/10 Q0991","station":{"name":"Oxford (Kidlington)"},"clouds":[{"code":"SCT","text":"Scattered","base_feet_agl":4100,"base_meters_agl":1249.68}],"conditions":[{"code":"HZ","text":"Haze"}],"flight_category":"IFR"}]}